$$SOE
2460154.500000000, A.D. 2023-Jul-29 00:00:00.0000, 2.635692098312396E+08, 2.468746333059541E+08, -3.440368574336400E+07,
2460161.500000000, A.D. 2023-Aug-05 00:00:00.0000, 2.566240384283202E+08, 2.556354287410205E+08, -3.332697290311979E+07,
2460168.500000000, A.D. 2023-Aug-12 00:00:00.0000, 2.494202365192438E+08, 2.641384865954651E+08, -3.221663172634242E+07,
2460175.500000000, A.D. 2023-Aug-19 00:00:00.0000, 2.419670519307982E+08, 2.723773294988257E+08, -3.107403952601057E+07,
2460182.500000000, A.D. 2023-Aug-26 00:00:00.0000, 2.342737971636523E+08, 2.803458008340005E+08, -2.990057923585172E+07,
2460189.500000000, A.D. 2023-Sep-02 00:00:00.0000, 2.263498409959171E+08, 2.880380580797048E+08, -2.869763828912352E+07,
2460196.500000000, A.D. 2023-Sep-09 00:00:00.0000, 2.182046007354093E+08, 2.954485660793822E+08, -2.746660759834874E+07,
2460203.500000000, A.D. 2023-Sep-16 00:00:00.0000, 2.098475352574605E+08, 3.025720902102288E+08, -2.620888065161847E+07,
2460210.500000000, A.D. 2023-Sep-23 00:00:00.0000, 2.012881392148611E+08, 3.094036897690249E+08, -2.492585273596789E+07,
2460217.500000000, A.D. 2023-Sep-30 00:00:00.0000, 1.925359380530605E+08, 3.159387127902086E+08, -2.361892015534072E+07,
2460224.500000000, A.D. 2023-Oct-07 00:00:00.0000, 1.836004814457664E+08, 3.221727917695503E+08, -2.228947926643673E+07,
2460231.500000000, A.D. 2023-Oct-14 00:00:00.0000, 1.744913361577997E+08, 3.281018370000297E+08, -2.093892569320869E+07,
2460238.500000000, A.D. 2023-Oct-21 00:00:00.0000, 1.652180815390998E+08, 3.337220291416593E+08, -1.956865388137282E+07,
2460245.500000000, A.D. 2023-Oct-28 00:00:00.0000, 1.557903061964813E+08, 3.390298132932681E+08, -1.818005667283894E+07,
2460252.500000000, A.D. 2023-Nov-04 00:00:00.0000, 1.462176045584120E+08, 3.440218938056036E+08, -1.677452484313406E+07,
2460259.500000000, A.D. 2023-Nov-11 00:00:00.0000, 1.365095734790868E+08, 3.486952292517878E+08, -1.535344666284585E+07,
2460266.500000000, A.D. 2023-Nov-18 00:00:00.0000, 1.266758090763567E+08, 3.530470275080167E+08, -1.391820750493863E+07,
2460273.500000000, A.D. 2023-Nov-25 00:00:00.0000, 1.167259038559992E+08, 3.570747409804134E+08, -1.247018949936950E+07,
2460280.500000000, A.D. 2023-Dec-02 00:00:00.0000, 1.066694441310901E+08, 3.607760619742217E+08, -1.101077123485664E+07,
2460287.500000000, A.D. 2023-Dec-09 00:00:00.0000, 9.651600779303613E+07, 3.641489181491475E+08, -9.541327515920460E+06,
2460294.500000000, A.D. 2023-Dec-16 00:00:00.0000, 8.627516269802147E+07, 3.671914680746024E+08, -8.063229196850196E+06,
2460301.500000000, A.D. 2023-Dec-23 00:00:00.0000, 7.595646599261190E+07, 3.699020975754498E+08, -6.577843065232128E+06,
2460308.500000000, A.D. 2023-Dec-30 00:00:00.0000, 6.556946301631638E+07, 3.722794179215911E+08, -5.086531563942030E+06,
2460315.500000000, A.D. 2024-Jan-06 00:00:00.0000, 5.512368398637205E+07, 3.743222634992588E+08, -3.590652379191503E+06,
2460322.500000000, A.D. 2024-Jan-13 00:00:00.0000, 4.462864161158551E+07, 3.760296871610473E+08, -2.091558330241919E+06,
2460329.500000000, A.D. 2024-Jan-20 00:00:00.0000, 3.409383084107860E+07, 3.774009563504333E+08, -5.905974190180600E+05,
2460336.500000000, A.D. 2024-Jan-27 00:00:00.0000, 2.352872870509204E+07, 3.784355506553765E+08, 9.108872019152045E+05,
2460343.500000000, A.D. 2024-Feb-03 00:00:00.0000, 1.294279380235727E+07, 3.791331598410240E+08, 2.411557307476014E+06,
2460350.500000000, A.D. 2024-Feb-10 00:00:00.0000, 2.345465693791639E+06, 3.794936820698033E+08, 3.910079677652508E+06,
2460357.500000000, A.D. 2024-Feb-17 00:00:00.0000, -8.253835676022551E+06, 3.795172223162231E+08, 5.405126164925545E+06,
2460364.500000000, A.D. 2024-Feb-24 00:00:00.0000, -1.884571051068957E+07, 3.792040909902181E+08, 6.895373751797676E+06,
2460371.500000000, A.D. 2024-Mar-02 00:00:00.0000, -2.942077963474254E+07, 3.785548027352774E+08, 8.379504595390946E+06,
2460378.500000000, A.D. 2024-Mar-09 00:00:00.0000, -3.996968478531228E+07, 3.775700753370042E+08, 9.856206043526411E+06,
2460385.500000000, A.D. 2024-Mar-16 00:00:00.0000, -5.048308834451986E+07, 3.762508289379876E+08, 1.132417060444000E+07,
2460392.500000000, A.D. 2024-Mar-23 00:00:00.0000, -6.095167263347220E+07, 3.745981866683502E+08, 1.278209597251573E+07,
2460399.500000000, A.D. 2024-Mar-30 00:00:00.0000, -7.136614102350849E+07, 3.726134766662160E+08, 1.422868531544876E+07,
2460406.500000000, A.D. 2024-Apr-06 00:00:00.0000, -8.171722062164821E+07, 3.702982321137127E+08, 1.566264752630152E+07,
2460413.500000000, A.D. 2024-Apr-13 00:00:00.0000, -9.199566299932575E+07, 3.676541901189423E+08, 1.708269718572028E+07,
2460420.500000000, A.D. 2024-Apr-20 00:00:00.0000, -1.021922439351506E+08, 3.646832921241791E+08, 1.848755454265161E+07,
2460427.500000000, A.D. 2024-Apr-27 00:00:00.0000, -1.122977637026097E+08, 3.613876852780704E+08, 1.987594560893956E+07,
2460434.500000000, A.D. 2024-May-04 00:00:00.0000, -1.223030478305476E+08, 3.577697240638950E+08, 2.124660230461611E+07,
2460441.500000000, A.D. 2024-May-11 00:00:00.0000, -1.321989481152801E+08, 3.538319720782906E+08, 2.259826262617354E+07,
2460448.500000000, A.D. 2024-May-18 00:00:00.0000, -1.419763438198802E+08, 3.495772039787765E+08, 2.392967083459944E+07,
2460455.500000000, A.D. 2024-May-25 00:00:00.0000, -1.516261430537510E+08, 3.450084075895234E+08, 2.523957766295254E+07,
2460462.500000000, A.D. 2024-Jun-01 00:00:00.0000, -1.611392842909180E+08, 3.401287861041795E+08, 2.652674053604138E+07,
2460469.500000000, A.D. 2024-Jun-08 00:00:00.0000, -1.705067377995209E+08, 3.349417603586383E+08, 2.778992378061847E+07,
2460476.500000000, A.D. 2024-Jun-15 00:00:00.0000, -1.797195066027097E+08, 3.294509717145209E+08, 2.902789883704557E+07,
2460483.500000000, A.D. 2024-Jun-22 00:00:00.0000, -1.887686279969959E+08, 3.236602867257670E+08, 3.023944466391589E+07,
2460490.500000000, A.D. 2024-Jun-29 00:00:00.0000, -1.976451777673521E+08, 3.175738017661763E+08, 3.142334838455781E+07,
2460497.500000000, A.D. 2024-Jul-06 00:00:00.0000, -2.063402744654361E+08, 3.111958451361052E+08, 3.257840573321488E+07,
2460504.500000000, A.D. 2024-Jul-13 00:00:00.0000, -2.148450818194565E+08, 3.045309794545228E+08, 3.370342135501383E+07,
2460511.500000000, A.D. 2024-Jul-20 00:00:00.0000, -2.231508112853201E+08, 2.975840054730107E+08, 3.479720923812963E+07,
2460518.500000000, A.D. 2024-Jul-27 00:00:00.0000, -2.312487254187999E+08, 2.903599663398604E+08, 3.585859326255210E+07,
2460525.500000000, A.D. 2024-Aug-03 00:00:00.0000, -2.391301418224223E+08, 2.828641519268748E+08, 3.688640781310920E+07,
2460532.500000000, A.D. 2024-Aug-10 00:00:00.0000, -2.467864375286333E+08, 2.751021032049978E+08, 3.787949844500250E+07,
2460539.500000000, A.D. 2024-Aug-17 00:00:00.0000, -2.542090537967862E+08, 2.670796166810607E+08, 3.883672260297947E+07,
2460546.500000000, A.D. 2024-Aug-24 00:00:00.0000, -2.613895013188947E+08, 2.588027488605020E+08, 3.975695039301044E+07,
2460553.500000000, A.D. 2024-Aug-31 00:00:00.0000, -2.683193657409290E+08, 2.502778206574038E+08, 4.063906539373747E+07,
2460560.500000000, A.D. 2024-Sep-07 00:00:00.0000, -2.749903131572582E+08, 2.415114218573372E+08, 4.148196548725972E+07,
2460567.500000000, A.D. 2024-Sep-14 00:00:00.0000, -2.813940955176162E+08, 2.325104166049875E+08, 4.228456378562979E+07,
2460574.500000000, A.D. 2024-Sep-21 00:00:00.0000, -2.875225580032225E+08, 2.232819503042497E+08, 4.304578987605305E+07,
2460581.500000000, A.D. 2024-Sep-28 00:00:00.0000, -2.933676488872251E+08, 2.138334546796220E+08, 4.376459116929018E+07,
2460588.500000000, A.D. 2024-Oct-05 00:00:00.0000, -2.989214282300122E+08, 2.041726509708114E+08, 4.443993401754406E+07,
2460595.500000000, A.D. 2024-Oct-12 00:00:00.0000, -3.041760757934729E+08, 1.943075542020817E+08, 4.507080488090076E+07,
2460602.500000000, A.D. 2024-Oct-19 00:00:00.0000, -3.091238999557300E+08, 1.842464782200762E+08, 4.565621168429714E+07,
2460609.500000000, A.D. 2024-Oct-26 00:00:00.0000, -3.137573476852276E+08, 1.739980406633633E+08, 4.619518530596180E+07,
2460616.500000000, A.D. 2024-Nov-02 00:00:00.0000, -3.180690153396699E+08, 1.635711676739717E+08, 4.668678116451568E+07,
2460623.500000000, A.D. 2024-Nov-09 00:00:00.0000, -3.220516602155025E+08, 1.529750983255051E+08, 4.713008090024085E+07,
2460630.500000000, A.D. 2024-Nov-16 00:00:00.0000, -3.256982128436200E+08, 1.422193887183694E+08, 4.752419415069225E+07,
2460637.500000000, A.D. 2024-Nov-23 00:00:00.0000, -3.290017900044221E+08, 1.313139156387640E+08, 4.786826041456737E+07,
2460644.500000000, A.D. 2024-Nov-30 00:00:00.0000, -3.319557082717494E+08, 1.202688796812857E+08, 4.816145098320480E+07,
2460651.500000000, A.D. 2024-Dec-07 00:00:00.0000, -3.345534976811200E+08, 1.090948081937314E+08, 4.840297093710635E+07,
2460658.500000000, A.D. 2024-Dec-14 00:00:00.0000, -3.367889162229161E+08, 9.780255920078166E+07, 4.859206137162608E+07,
2460665.500000000, A.D. 2024-Dec-21 00:00:00.0000, -3.386559674908218E+08, 8.640332499398741E+07, 4.872800196395048E+07,
2460672.500000000, A.D. 2024-Dec-28 00:00:00.0000, -3.401489195224794E+08, 7.490863234805068E+07, 4.881011345889182E+07,
2460679.500000000, A.D. 2025-Jan-04 00:00:00.0000, -3.412623222317786E+08, 6.333034166296256E+07, 4.883776002871352E+07,
2460686.500000000, A.D. 2025-Jan-11 00:00:00.0000, -3.419910252432545E+08, 5.168064660418062E+07, 4.881035180708508E+07,
2460693.500000000, A.D. 2025-Jan-18 00:00:00.0000, -3.423301970374107E+08, 3.997207322986149E+07, 4.872734760390119E+07,
2460700.500000000, A.D. 2025-Jan-25 00:00:00.0000, -3.422753451500273E+08, 2.821747803891734E+07, 4.858825773736028E+07,
2460707.500000000, A.D. 2025-Feb-01 00:00:00.0000, -3.418223372114426E+08, 1.643004481455636E+07, 4.839264695944871E+07,
2460714.500000000, A.D. 2025-Feb-08 00:00:00.0000, -3.409674227336127E+08, 4.623280182726681E+06, 4.814013746557415E+07,
2460721.500000000, A.D. 2025-Feb-15 00:00:00.0000, -3.397072555739972E+08, -7.188992238541173E+06, 4.783041197732153E+07,
$$EOE